#dP2019  6 15  0  0  0.00000000      96 __u+U ITR00 FIT  IAC
## 2057 518400.00000000   900.00000000 58649 0.0000000000000
+   93   C01C02C03C05C06C07C08C09C10C11C12C13C14C16E01E02E03
+        E04E05E07E08E09E11E12E13E14E15E18E19E21E24E25E26E27
+        E30E31E33E36G01G02G03G04G05G06G07G08G09G10G11G12G13
+        G14G15G16G17G18G19G20G21G22G23G24G25G26G27G28G29G30
+        G31G32R01R02R03R04R05R07R08R09R10R11R13R14R15R16R17
+        R18R19R20R21R22R23R24R26  0  0  0  0  0  0  0  0  0
++        13 12 13 12  9  8  9  8  8  8  8  9  8  9  5  5  5
++         5  5  5  5  5  5  5  5  5  5  6  5  5  5  5  5  5
++         5  5  5  6  4  4  4  4  3  4  4  4  3  3  4  4  3
++         4  3  4  4  4  4  3  3  4  4  4  3  4  4  4  3  3
++         4  4  5  6  6  6  5  5  5  5  5  5  6  5  5  6  5
++         6  6  6  5  5  5  6  8  0  0  0  0  0  0  0  0  0
%c M  cc GPS ccc cccc cccc cccc cccc ccccc ccccc ccccc ccccc
%c cc cc ccc ccc cccc cccc cccc cccc ccccc ccccc ccccc ccccc
%f  0.0000000  0.000000000  0.00000000000  0.000000000000000
%f  0.0000000  0.000000000  0.00000000000  0.000000000000000
%i    0    0    0    0      0      0      0      0         0
%i    0    0    0    0      0      0      0      0         0
/*                                                          
/*   RSA / INFORMATION & ANALYSIS CENTER (IAC) OF MCC       
/*   ULTRA-RAPID DETERMINATION                              
/* PCV:IGS14_2056 OL/AL:FES2004  NONE     YN ORB:CoN CLK:CoN
*  2019 06 15  7 45  0.00000000
PC01      0.000000      0.000000      0.000000 999999.999999
PC02   4364.248899  41945.939124    492.741363     95.585089
PC03 -14854.132959  39445.600141    658.897394    540.028550
PC05  21872.910644  36034.169027    275.808922   -257.208054
PC06 -23886.830533  24065.368753 -24950.053589    897.848291
PC07 -16201.170054  37489.799150  -9298.065312    142.282613
PC08  -5542.460769  24105.890073  34291.674574    165.231598
PC09  -6185.419286  25233.066550 -33028.649747    843.369261
PC10  -4489.896661  41287.338970   6062.129479   -845.940894
PC11 -27048.264161   -423.301471   6780.285674    276.245178
PC12 -15138.724493 -14754.121211 -18118.021215    766.732725
PC13   7198.779353  32053.257504  26621.631776   -778.453795
PC14 -17907.089571  -1826.138689  21403.937681    564.843661
PC16 -20222.084320  24816.908799 -27485.093492   -918.241040
PE01 -12208.038932 -18387.788869 -19728.958635   -626.568999
PE02  12230.188809  18333.873231  19758.426108     64.913429
PE03  17583.323004   8657.371754 -22177.608435   -177.540020
PE04 -27313.604787   6840.674149   9139.190680   -303.199669
PE05  -2560.371918  19236.360657 -22340.454793   -474.921040
PE07  21083.466713 -18516.267954   9456.972501   -207.600478
PE08  27247.559133  -7214.560979  -9052.132722   6339.533215
PE09 -20941.460971  18620.688486  -9494.981215   6408.279523
PE11 -11780.355321  11800.259230  24451.542481   5676.460232
PE12 -25321.612870  -4252.991378  14747.556019   6345.707187
PE13  11793.040106 -11711.288878 -24490.773574    388.566855
PE14 -12293.238858 -18452.677958 -23542.792648   -606.035324
PE15  25183.081999   3867.991787 -15057.808360    906.771886
PE18  15993.998236  10800.248599  14258.229941   -702.529064
PE19 -15840.368629  -9935.583994  22958.066531     -5.753986
PE21   -919.198490 -29413.529997  -3239.514609   -539.154985
PE24 -10935.349364  23183.523899 -14825.768954   6027.621433
PE25    877.234409  29412.289904   3175.621259   1772.646581
PE26  -8344.764148 -20660.780718 -19484.959187   4451.433234
PE27  10915.459056 -23017.251329  15079.056100    448.886591
PE30  16367.048539  -3313.863723  24429.041798   4788.837860
PE31 -16310.733582   3122.425024 -24497.744814   -465.632336
PE33 -23865.399134 -17222.646197  -3212.602927   -469.939437
PE36   8535.609252  20469.195088  19601.877683    699.518019
PG01 -20043.002085 -10480.590960  13995.090376    -41.590779
PG02  13642.502499  22140.858224   6376.443667   -237.742904
PG03 -15760.483419   -594.682160  21317.925459    185.475832
PG04 -20237.783220  11322.967796 -12933.278241    167.635790
PG05   5459.080802  19812.534655 -16834.359525      0.527244
PG06   1999.202909  20687.776237  16557.862494    177.430650
PG07 -15745.778945   3661.534652 -20890.378436    -44.824666
PG08 -21765.823760  -6328.079474 -13983.275834   -147.503168
PG09 -24256.016859   8567.309978  -6669.853859    391.252687
PG10  11187.699461 -23864.468553  -2164.732467     15.545333
PG11 -24568.865555  -8339.481063   4469.159623   -584.111330
PG12  14454.948828   3480.848503  21778.367825    232.991428
PG13  13564.983608  12863.939236 -18994.681166    -58.985498
PG14   2518.928140 -15426.642928  21782.557017    -76.000614
PG15  22907.579221   4711.201320 -13211.340128   -306.953592
PG16  -3352.207187 -19473.670643 -17717.057122    -48.228675
PG17 -11844.270591  14059.614540  19544.031446     72.017688
PG18 -19701.023789 -16903.252995   5437.269037     62.060417
PG19  -4561.264800  14528.969068  21464.970166   -306.379256
PG20  14166.372846 -19130.713718 -11721.117746    525.390471
PG21  11410.727334  -9878.162326 -21065.520922   -172.890449
PG22 -13845.387486  -8751.173876  21151.220796   -717.250663
PG23 -26148.639899   -272.508369   6080.148365   -181.702337
PG24  21088.428912  12146.090470  10869.459011    -67.489258
PG25  16976.585296 -10673.832809  17073.212840   -765.824299
PG26   2737.765674 -24884.333760  -8619.953186    227.371552
PG27 -10987.511609 -12589.487154 -20827.698372   -158.368963
PG28 -12995.440834  23127.028192  -1505.824822    767.442763
PG29  26084.391965  -4003.771944  -3096.729091    176.007146
PG30  -8308.128723  14318.623277 -20712.445974   -124.225181
PG31  -2513.257831 -21391.083170  15239.047551     30.979657
PG32  10056.987738 -15253.492155  19296.872200    -42.926906
PR01   7084.133596   8560.831660 -22952.039522     45.350336
PR02  19749.020900  -7702.317399 -14105.245898    373.597360
PR03  18550.939718 -17253.356381   2819.536070     -3.250333
PR04   6118.764115 -16577.351241  18411.580711    310.179751
PR05  -8874.908243  -6670.526261  22981.922865     30.080780
PR07 -18432.525299  17360.484336  -3200.169573    -21.799057
PR08  -6872.382367  16821.398835 -17847.026818     17.245748
PR09 -11172.962035    760.477734 -22907.646443     75.135113
PR10  -6137.874030  16255.580567 -18658.589627     52.192850
PR11   3040.075686  25159.314373  -2649.371990    -69.502414
PR13  11207.853221   1315.935554  22857.276611    -24.896779
PR14   6081.033423 -16567.023908  18436.759376     39.963140
PR15  -2569.356060 -25128.248357   3587.742164    102.541562
PR16 -10280.688122 -18901.096270 -13634.049797      8.536664
PR17  13846.278474  -5029.546724 -20829.706342    235.885400
PR18  -3560.717721 -12063.845061 -22192.614765     -3.202328
PR19 -18586.353562 -13027.788436 -11645.154401    -36.387500
PR20 -23686.327967  -5847.376227   7532.111979   -381.297074
PR21 -13190.028822   5334.757285  21161.241542    -54.079493
PR22   6191.696651  12586.435217  21271.673177    -24.009430
PR23  21847.822914  11406.649766   6555.453383    234.500567
PR24  23349.633639   4351.913562  -9307.959361   -181.554968
PR26 -24112.525046  -6784.955014   4761.188497     -6.626036
EOF
